{
  "type": "FeatureCollection",
  "name": "Visakhapatnam_Junction_Railway_Station_Cadastre",
  "crs": {
    "type": "name",
    "properties": {
      "name": "urn:ogc:def:crs:OGC:1.3:CRS84"
    }
  },
  "features": [
    {
      "type": "Feature",
      "properties": {
        "ulpin": "79Q547VSKP0001",
        "parcel_id": "VSP-DWK-RLY01",
        "survey_number": "Sy. No. 1/1 (Railway Land)",
        "lot_number": "Visakhapatnam Junction (VSKP)",
        "owner_name": "Ministry of Railways, Govt of India (East Coast Railway - Waltair Division)",
        "zone": "dwaraka_nagar",
        "property_type": "Commercial",
        "status": "occupied",
        "market_value": 11107526300,
        "address": "Visakhapatnam Junction Railway Station, Station Road, Dwaraka Nagar / Gnanapuram, Visakhapatnam 530001",
        "area_sqft": 1708850.2
      },
      "geometry": {
        "type": "Polygon",
        "coordinates": [
          [
            [
              83.2911916,
              17.7179395
            ],
            [
              83.2915085,
              17.7180605
            ],
            [
              83.2920031,
              17.7187385
            ],
            [
              83.2920165,
              17.7192929
            ],
            [
              83.2913956,
              17.7208476
            ],
            [
              83.2906765,
              17.7227287
            ],
            [
              83.290614,
              17.7228926
            ],
            [
              83.2908248,
              17.7229653
            ],
            [
              83.29106,
              17.7230528
            ],
            [
              83.2905668,
              17.724496
            ],
            [
              83.2897246,
              17.7244271
            ],
            [
              83.2892901,
              17.7242891
            ],
            [
              83.2889119,
              17.724795
            ],
            [
              83.2885283,
              17.7255103
            ],
            [
              83.2881314,
              17.7252906
            ],
            [
              83.2883325,
              17.7238573
            ],
            [
              83.2885954,
              17.7226003
            ],
            [
              83.2887321,
              17.7221168
            ],
            [
              83.2896083,
              17.7203247
            ],
            [
              83.2902024,
              17.7186991
            ],
            [
              83.2907036,
              17.7187832
            ],
            [
              83.2911113,
              17.7182186
            ],
            [
              83.2911916,
              17.7179395
            ]
          ]
        ]
      }
    }
  ]
}