{
  "type": "FeatureCollection",
  "name": "Drone_DGPS_Survey_79Q547SNA8EHU9",
  "crs": {
    "type": "name",
    "properties": {
      "name": "urn:ogc:def:crs:OGC:1.3:CRS84"
    }
  },
  "features": [
    {
      "type": "Feature",
      "properties": {
        "ulpin": "79Q547SNA8EHU9",
        "parcel_id": "VSP-GJW-002",
        "survey_number": "Sy. No. 104/2",
        "village": "Gajuwaka",
        "district": "Visakhapatnam",
        "state": "Andhra Pradesh",
        "owner_name": "Resident Welfare Association (Sky Park Apartment)",
        "survey_agency": "AP Survey & Land Records Dept (Drone Wing)",
        "sensor": "DJI Zenmuse P1 / RTK GNSS Rover",
        "flight_ref": "DRONE-AP-VSP-2026-F801",
        "dgps_accuracy": "+/- 1.8 cm RTK",
        "datum": "WGS 84 / EPSG:4326",
        "baseline_area_sqft": 5438.4,
        "surveyed_area_sqft": 5536.0,
        "discrepancy_sqft": 97.6,
        "discrepancy_pct": 1.79
      },
      "geometry": {
        "type": "Polygon",
        "coordinates": [
          [
            [83.2121925, 17.6720970],
            [83.2121370, 17.6719830],
            [83.2124235, 17.6718550],
            [83.2124772, 17.6720050],
            [83.2121925, 17.6720970]
          ]
        ]
      }
    }
  ]
}

